{
  "type": "FeatureCollection",
  "features": [
    {
      "type": "Feature",
      "properties": {
        "norad_id": 34459,
        "name": "COSMOS 2251 DEB",
        "group": "cosmos-2251-debris",
        "lat": -37.443693109269276,
        "lon": 86.89724444786778,
        "alt_km": 931.5828105415421,
        "timestamp": "2025-12-12T14:39:18.327047+00:00",
        "meta_object_name": "COSMOS 2251 DEB",
        "meta_object_id": "1993-036TC",
        "meta_epoch": "2025-12-12T03:18:35.878464",
        "meta_mean_motion": 14.00498403,
        "meta_eccentricity": 0.01920593,
        "meta_inclination": 74.0792,
        "meta_ra_of_asc_node": 255.0888,
        "meta_arg_of_pericenter": 325.0061,
        "meta_mean_anomaly": 33.8571,
        "meta_ephemeris_type": 0,
        "meta_classification_type": "U",
        "meta_norad_cat_id": 34459,
        "meta_element_set_no": 999,
        "meta_rev_at_epoch": 85703,
        "meta_bstar": 0.00078203325,
        "meta_mean_motion_dot": 1.337e-05,
        "meta_mean_motion_ddot": 0,
        "tle_line1": "1 34459U 93036TC  25346.13791526  .00001337  00000+0  78203-3 0  9996",
        "tle_line2": "2 34459  74.0792 255.0888 0192059 325.0061  33.8571 14.00498403857038"
      },
      "geometry": {
        "type": "Point",
        "coordinates": [
          86.89724444786778,
          -37.443693109269276
        ]
      }
    },
    {
      "type": "Feature",
      "properties": {
        "norad_id": 34464,
        "name": "COSMOS 2251 DEB",
        "group": "cosmos-2251-debris",
        "lat": -54.552196691272805,
        "lon": 54.75884591960469,
        "alt_km": 483.69700066730184,
        "timestamp": "2025-12-12T14:39:18.327056+00:00",
        "meta_object_name": "COSMOS 2251 DEB",
        "meta_object_id": "1993-036TH",
        "meta_epoch": "2025-12-12T07:02:46.366080",
        "meta_mean_motion": 15.2696136,
        "meta_eccentricity": 0.00158603,
        "meta_inclination": 73.9887,
        "meta_ra_of_asc_node": 79.2206,
        "meta_arg_of_pericenter": 257.724,
        "meta_mean_anomaly": 102.2185,
        "meta_ephemeris_type": 0,
        "meta_classification_type": "U",
        "meta_norad_cat_id": 34464,
        "meta_element_set_no": 999,
        "meta_rev_at_epoch": 89833,
        "meta_bstar": 0.0040342509,
        "meta_mean_motion_dot": 0.00108738,
        "meta_mean_motion_ddot": 0,
        "tle_line1": "1 34464U 93036TH  25346.29359220  .00108738  00000+0  40343-2 0  9996",
        "tle_line2": "2 34464  73.9887  79.2206 0015860 257.7240 102.2185 15.26961360898337"
      },
      "geometry": {
        "type": "Point",
        "coordinates": [
          54.75884591960469,
          -54.552196691272805
        ]
      }
    },
    {
      "type": "Feature",
      "properties": {
        "norad_id": 34468,
        "name": "COSMOS 2251 DEB",
        "group": "cosmos-2251-debris",
        "lat": -21.578250128127706,
        "lon": -56.04353505009998,
        "alt_km": 710.9140636354678,
        "timestamp": "2025-12-12T14:39:18.327065+00:00",
        "meta_object_name": "COSMOS 2251 DEB",
        "meta_object_id": "1993-036TM",
        "meta_epoch": "2025-12-12T03:45:51.703488",
        "meta_mean_motion": 14.4762272,
        "meta_eccentricity": 0.00763561,
        "meta_inclination": 74.0128,
        "meta_ra_of_asc_node": 118.2959,
        "meta_arg_of_pericenter": 263.3466,
        "meta_mean_anomaly": 95.8998,
        "meta_ephemeris_type": 0,
        "meta_classification_type": "U",
        "meta_norad_cat_id": 34468,
        "meta_element_set_no": 999,
        "meta_rev_at_epoch": 88453,
        "meta_bstar": 0.0005887288,
        "meta_mean_motion_dot": 2.221e-05,
        "meta_mean_motion_ddot": 0,
        "tle_line1": "1 34468U 93036TM  25346.15684842  .00002221  00000+0  58873-3 0  9994",
        "tle_line2": "2 34468  74.0128 118.2959 0076356 263.3466  95.8998 14.47622720884532"
      },
      "geometry": {
        "type": "Point",
        "coordinates": [
          -56.04353505009998,
          -21.578250128127706
        ]
      }
    },
    {
      "type": "Feature",
      "properties": {
        "norad_id": 34472,
        "name": "COSMOS 2251 DEB",
        "group": "cosmos-2251-debris",
        "lat": -73.36011710948762,
        "lon": -8.942265516071197,
        "alt_km": 806.2414294891587,
        "timestamp": "2025-12-12T14:39:18.327074+00:00",
        "meta_object_name": "COSMOS 2251 DEB",
        "meta_object_id": "1993-036TR",
        "meta_epoch": "2025-12-10T17:33:33.413472",
        "meta_mean_motion": 13.70324681,
        "meta_eccentricity": 0.03280455,
        "meta_inclination": 74.083,
        "meta_ra_of_asc_node": 101.446,
        "meta_arg_of_pericenter": 232.9036,
        "meta_mean_anomaly": 124.1688,
        "meta_ephemeris_type": 0,
        "meta_classification_type": "U",
        "meta_norad_cat_id": 34472,
        "meta_element_set_no": 999,
        "meta_rev_at_epoch": 83699,
        "meta_bstar": 0.0010864797,
        "meta_mean_motion_dot": 1.379e-05,
        "meta_mean_motion_ddot": 0,
        "tle_line1": "1 34472U 93036TR  25344.73163673  .00001379  00000+0  10865-2 0  9996",
        "tle_line2": "2 34472  74.0830 101.4460 0328045 232.9036 124.1688 13.70324681836997"
      },
      "geometry": {
        "type": "Point",
        "coordinates": [
          -8.942265516071197,
          -73.36011710948762
        ]
      }
    },
    {
      "type": "Feature",
      "properties": {
        "norad_id": 34474,
        "name": "COSMOS 2251 DEB",
        "group": "cosmos-2251-debris",
        "lat": 18.534782317684783,
        "lon": -28.10382866846256,
        "alt_km": 736.9181045893793,
        "timestamp": "2025-12-12T14:39:18.327083+00:00",
        "meta_object_name": "COSMOS 2251 DEB",
        "meta_object_id": "1993-036TT",
        "meta_epoch": "2025-12-12T01:13:13.592064",
        "meta_mean_motion": 14.06405494,
        "meta_eccentricity": 0.01982757,
        "meta_inclination": 74.0782,
        "meta_ra_of_asc_node": 327.3812,
        "meta_arg_of_pericenter": 41.4304,
        "meta_mean_anomaly": 25.6998,
        "meta_ephemeris_type": 0,
        "meta_classification_type": "U",
        "meta_norad_cat_id": 34474,
        "meta_element_set_no": 999,
        "meta_rev_at_epoch": 85499,
        "meta_bstar": 0.0028439459,
        "meta_mean_motion_dot": 5.592e-05,
        "meta_mean_motion_ddot": 0,
        "tle_line1": "1 34474U 93036TT  25346.05085176  .00005592  00000+0  28439-2 0  9993",
        "tle_line2": "2 34474  74.0782 327.3812 0198275  41.4304  25.6998 14.06405494854997"
      },
      "geometry": {
        "type": "Point",
        "coordinates": [
          -28.10382866846256,
          18.534782317684783
        ]
      }
    },
    {
      "type": "Feature",
      "properties": {
        "norad_id": 34476,
        "name": "COSMOS 2251 DEB",
        "group": "cosmos-2251-debris",
        "lat": 6.1093315960320025,
        "lon": 84.47981282225302,
        "alt_km": 850.0013635696341,
        "timestamp": "2025-12-12T14:39:18.327092+00:00",
        "meta_object_name": "COSMOS 2251 DEB",
        "meta_object_id": "1993-036TV",
        "meta_epoch": "2025-12-12T05:56:21.402816",
        "meta_mean_motion": 13.82020455,
        "meta_eccentricity": 0.03202691,
        "meta_inclination": 74.0049,
        "meta_ra_of_asc_node": 83.3324,
        "meta_arg_of_pericenter": 303.0021,
        "meta_mean_anomaly": 54.0695,
        "meta_ephemeris_type": 0,
        "meta_classification_type": "U",
        "meta_norad_cat_id": 34476,
        "meta_element_set_no": 999,
        "meta_rev_at_epoch": 83631,
        "meta_bstar": 0.0050228987,
        "meta_mean_motion_dot": 7.967e-05,
        "meta_mean_motion_ddot": 0,
        "tle_line1": "1 34476U 93036TV  25346.24746994  .00007967  00000+0  50229-2 0  9998",
        "tle_line2": "2 34476  74.0049  83.3324 0320269 303.0021  54.0695 13.82020455836314"
      },
      "geometry": {
        "type": "Point",
        "coordinates": [
          84.47981282225302,
          6.1093315960320025
        ]
      }
    },
    {
      "type": "Feature",
      "properties": {
        "norad_id": 34477,
        "name": "COSMOS 2251 DEB",
        "group": "cosmos-2251-debris",
        "lat": -40.40001528825554,
        "lon": -96.09806790623048,
        "alt_km": 664.5312307461527,
        "timestamp": "2025-12-12T14:39:18.327102+00:00",
        "meta_object_name": "COSMOS 2251 DEB",
        "meta_object_id": "1993-036TW",
        "meta_epoch": "2025-12-12T07:18:08.568576",
        "meta_mean_motion": 14.56859876,
        "meta_eccentricity": 0.00769027,
        "meta_inclination": 73.9789,
        "meta_ra_of_asc_node": 70.3308,
        "meta_arg_of_pericenter": 257.5649,
        "meta_mean_anomaly": 159.1179,
        "meta_ephemeris_type": 0,
        "meta_classification_type": "U",
        "meta_norad_cat_id": 34477,
        "meta_element_set_no": 999,
        "meta_rev_at_epoch": 88619,
        "meta_bstar": 0.001306089,
        "meta_mean_motion_dot": 6.069e-05,
        "meta_mean_motion_ddot": 0,
        "tle_line1": "1 34477U 93036TW  25346.30426584  .00006069  00000+0  13061-2 0  9991",
        "tle_line2": "2 34477  73.9789  70.3308 0076902 257.5649 159.1179 14.56859876886197"
      },
      "geometry": {
        "type": "Point",
        "coordinates": [
          -96.09806790623048,
          -40.40001528825554
        ]
      }
    }
  ]
}